{"type": "FeatureCollection", "features": [ {"type": "Feature", "properties": {"norad_id": 31841, "name": "FENGYUN 1C DEB", "group": "fengyun-1c-debris", "lat": -75.2459945858066, "lon": -46.13271400067322, "alt_km": 667.0720675941402, "timestamp": "2025-12-26T07:29:18.739977+00:00", "meta": {"OBJECT_NAME": "FENGYUN 1C DEB", "OBJECT_ID": "1999-025CJF", "EPOCH": "2025-12-20T17:06:06.055776", "MEAN_MOTION": 14.03626742, "ECCENTRICITY": 0.03086895, "INCLINATION": 98.4167, "RA_OF_ASC_NODE": 162.8817, "ARG_OF_PERICENTER": 282.8098, "MEAN_ANOMALY": 136.7596, "EPHEMERIS_TYPE": 0, "CLASSIFICATION_TYPE": "U", "NORAD_CAT_ID": 31841, "ELEMENT_SET_NO": 999, "REV_AT_EPOCH": 59451, "BSTAR": 0.0011379131, "MEAN_MOTION_DOT": 2.684e-05, "MEAN_MOTION_DDOT": 0}, "tle": {"line1": "1 31841U 99025CJF 25354.71257009  .00002684  00000+0  11379-2 0  9994", "line2": "2 31841  98.4167 162.8817 0308689 282.8098 136.7596 14.03626742594514"}}, "geometry": {"type": "Point", "coordinates": [-46.13271400067322, -75.2459945858066]}}, {"type": "Feature", "properties": {"norad_id": 31843, "name": "FENGYUN 1C DEB", "group": "fengyun-1c-debris", "lat": -77.6679484873622, "lon": -11.726780894851395, "alt_km": 771.4473039159866, "timestamp": "2025-12-26T07:29:18.739987+00:00", "meta": {"OBJECT_NAME": "FENGYUN 1C DEB", "OBJECT_ID": "1999-025CJH", "EPOCH": "2025-12-24T01:51:32.353920", "MEAN_MOTION": 13.34098922, "ECCENTRICITY": 0.0638989, "INCLINATION": 99.2841, "RA_OF_ASC_NODE": 297.7981, "ARG_OF_PERICENTER": 326.1893, "MEAN_ANOMALY": 29.9986, "EPHEMERIS_TYPE": 0, "CLASSIFICATION_TYPE": "U", "NORAD_CAT_ID": 31843, "ELEMENT_SET_NO": 999, "REV_AT_EPOCH": 64847, "BSTAR": 0.0068044238, "MEAN_MOTION_DOT": 0.00010896, "MEAN_MOTION_DDOT": 0}, "tle": {"line1": "1 31843U 99025CJH 25358.07745780  .00010896  00000+0  68044-2 0  9992", "line2": "2 31843  99.2841 297.7981 0638989 326.1893  29.9986 13.34098922648475"}}, "geometry": {"type": "Point", "coordinates": [-11.726780894851395, -77.6679484873622]}}, {"type": "Feature", "properties": {"norad_id": 31844, "name": "FENGYUN 1C DEB", "group": "fengyun-1c-debris", "lat": -68.29628358395965, "lon": 143.98562164941276, "alt_km": 799.0161771278226, "timestamp": "2025-12-26T07:29:18.739997+00:00", "meta": {"OBJECT_NAME": "FENGYUN 1C DEB", "OBJECT_ID": "1999-025CJJ", "EPOCH": "2025-12-24T05:15:19.053792", "MEAN_MOTION": 14.19795116, "ECCENTRICITY": 0.0103164, "INCLINATION": 100.3026, "RA_OF_ASC_NODE": 348.7464, "ARG_OF_PERICENTER": 319.6225, "MEAN_ANOMALY": 39.732, "EPHEMERIS_TYPE": 0, "CLASSIFICATION_TYPE": "U", "NORAD_CAT_ID": 31844, "ELEMENT_SET_NO": 999, "REV_AT_EPOCH": 95495, "BSTAR": 0.00094874151, "MEAN_MOTION_DOT": 2.063e-05, "MEAN_MOTION_DDOT": 0}, "tle": {"line1": "1 31844U 99025CJJ 25358.21897053  .00002063  00000+0  94874-3 0  9998", "line2": "2 31844 100.3026 348.7464 0103164 319.6225  39.7320 14.19795116954953"}}, "geometry": {"type": "Point", "coordinates": [143.98562164941276, -68.29628358395965]}}, {"type": "Feature", "properties": {"norad_id": 31850, "name": "FENGYUN 1C DEB", "group": "fengyun-1c-debris", "lat": -54.82560079535019, "lon": 59.42420891031216, "alt_km": 471.42279809722095, "timestamp": "2025-12-26T07:29:18.740007+00:00", "meta": {"OBJECT_NAME": "FENGYUN 1C DEB", "OBJECT_ID": "1999-025CJQ", "EPOCH": "2025-12-14T09:23:04.476192", "MEAN_MOTION": 15.33433546, "ECCENTRICITY": 0.00762245, "INCLINATION": 98.5734, "RA_OF_ASC_NODE": 33.2199, "ARG_OF_PERICENTER": 83.7911, "MEAN_ANOMALY": 277.2005, "EPHEMERIS_TYPE": 0, "CLASSIFICATION_TYPE": "U", "NORAD_CAT_ID": 31850, "ELEMENT_SET_NO": 999, "REV_AT_EPOCH": 65854, "BSTAR": 0.0030655456, "MEAN_MOTION_DOT": 0.00109983, "MEAN_MOTION_DDOT": 0}, "tle": {"line1": "1 31850U 99025CJQ 25348.39102403  .00109983  00000+0  30655-2 0  9996", "line2": "2 31850  98.5734  33.2199 0076224  83.7911 277.2005 15.33433546658540"}}, "geometry": {"type": "Point", "coordinates": [59.42420891031216, -54.82560079535019]}}, {"type": "Feature", "properties": {"norad_id": 31854, "name": "FENGYUN 1C DEB", "group": "fengyun-1c-debris", "lat": 72.64793763725599, "lon": -146.9632331694855, "alt_km": 823.5336076900367, "timestamp": "2025-12-26T07:29:18.740017+00:00", "meta": {"OBJECT_NAME": "FENGYUN 1C DEB", "OBJECT_ID": "1999-025CJU", "EPOCH": "2025-12-23T07:06:46.821600", "MEAN_MOTION": 14.03092081, "ECCENTRICITY": 0.00723725, "INCLINATION": 98.8483, "RA_OF_ASC_NODE": 0.2029, "ARG_OF_PERICENTER": 111.91, "MEAN_ANOMALY": 248.9781, "EPHEMERIS_TYPE": 0, "CLASSIFICATION_TYPE": "U", "NORAD_CAT_ID": 31854, "ELEMENT_SET_NO": 999, "REV_AT_EPOCH": 69420, "BSTAR": 0.00056954168, "MEAN_MOTION_DOT": 8.64e-06, "MEAN_MOTION_DDOT": 0}, "tle": {"line1": "1 31854U 99025CJU 25357.29637525  .00000864  00000+0  56954-3 0  9996", "line2": "2 31854  98.8483   0.2029 0072372 111.9100 248.9781 14.03092081694208"}}, "geometry": {"type": "Point", "coordinates": [-146.9632331694855, 72.64793763725599]}}, {"type": "Feature", "properties": {"norad_id": 31857, "name": "FENGYUN 1C DEB", "group": "fengyun-1c-debris", "lat": 21.39247756721723, "lon": 22.518681433870597, "alt_km": 1193.6797073928574, "timestamp": "2025-12-26T07:29:18.740029+00:00", "meta": {"OBJECT_NAME": "FENGYUN 1C DEB", "OBJECT_ID": "1999-025CJX", "EPOCH": "2025-12-21T19:49:30.664704", "MEAN_MOTION": 13.61956441, "ECCENTRICITY": 0.03096802, "INCLINATION": 96.1878, "RA_OF_ASC_NODE": 22.0982, "ARG_OF_PERICENTER": 256.7702, "MEAN_ANOMALY": 99.8737, "EPHEMERIS_TYPE": 0, "CLASSIFICATION_TYPE": "U", "NORAD_CAT_ID": 31857, "ELEMENT_SET_NO": 999, "REV_AT_EPOCH": 61753, "BSTAR": 0.0014310612, "MEAN_MOTION_DOT": 1.495e-05, "MEAN_MOTION_DDOT": 0}, "tle": {"line1": "1 31857U 99025CJX 25355.82604936  .00001495  00000+0  14311-2 0  9997", "line2": "2 31857  96.1878  22.0982 0309680 256.7702  99.8737 13.61956441617538"}}, "geometry": {"type": "Point", "coordinates": [22.518681433870597, 21.39247756721723]}}, {"type": "Feature", "properties": {"norad_id": 31861, "name": "FENGYUN 1C DEB", "group": "fengyun-1c-debris", "lat": -70.54981253026489, "lon": -22.666457117921553, "alt_km": 1066.6753954944797, "timestamp": "2025-12-26T07:29:18.740038+00:00", "meta": {"OBJECT_NAME": "FENGYUN 1C DEB", "OBJECT_ID": "1999-025CKB", "EPOCH": "2025-12-22T08:23:07.626048", "MEAN_MOTION": 13.30350862, "ECCENTRICITY": 0.04925861, "INCLINATION": 102.3403, "RA_OF_ASC_NODE": 190.8894, "ARG_OF_PERICENTER": 184.0314, "MEAN_ANOMALY": 175.6758, "EPHEMERIS_TYPE": 0, "CLASSIFICATION_TYPE": "U", "NORAD_CAT_ID": 31861, "ELEMENT_SET_NO": 999, "REV_AT_EPOCH": 66895, "BSTAR": 0.0023684948, "MEAN_MOTION_DOT": 2.121e-05, "MEAN_MOTION_DDOT": 0}, "tle": {"line1": "1 31861U 99025CKB 25356.34939382  .00002121  00000+0  23685-2 0  9997", "line2": "2 31861 102.3403 190.8894 0492586 184.0314 175.6758 13.30350862668952"}}, "geometry": {"type": "Point", "coordinates": [-22.666457117921553, -70.54981253026489]}}, {"type": "Feature", "properties": {"norad_id": 31877, "name": "FENGYUN 1C DEB", "group": "fengyun-1c-debris", "lat": 34.96166681567182, "lon": -100.94117180698774, "alt_km": 558.4490223737075, "timestamp": "2025-12-26T07:29:18.740048+00:00", "meta": {"OBJECT_NAME": "FENGYUN 1C DEB", "OBJECT_ID": "1999-025CKC", "EPOCH": "2025-12-24T10:03:54.085536", "MEAN_MOTION": 15.0179485, "ECCENTRICITY": 0.010385, "INCLINATION": 99.005, "RA_OF_ASC_NODE": 70.4985, "ARG_OF_PERICENTER": 240.85, "MEAN_ANOMALY": 118.2297, "EPHEMERIS_TYPE": 0, "CLASSIFICATION_TYPE": "U", "NORAD_CAT_ID": 31877, "ELEMENT_SET_NO": 999, "REV_AT_EPOCH": 99217, "BSTAR": 0.0010130212, "MEAN_MOTION_DOT": 0.00014768, "MEAN_MOTION_DDOT": 0}, "tle": {"line1": "1 31877U 99025CKC 25358.41937599  .00014768  00000+0  10130-2 0  9993", "line2": "2 31877  99.0050  70.4985 0103850 240.8500 118.2297 15.01794850992178"}}, "geometry": {"type": "Point", "coordinates": [-100.94117180698774, 34.96166681567182]}}, {"type": "Feature", "properties": {"norad_id": 31878, "name": "FENGYUN 1C DEB", "group": "fengyun-1c-debris", "lat": -37.465853480777575, "lon": -66.29367050716759, "alt_km": 650.86953603027, "timestamp": "2025-12-26T07:29:18.740058+00:00", "meta": {"OBJECT_NAME": "FENGYUN 1C DEB", "OBJECT_ID": "1999-025CKD", "EPOCH": "2025-12-21T12:55:43.069152", "MEAN_MOTION": 14.86026303, "ECCENTRICITY": 0.0083415, "INCLINATION": 99.4418, "RA_OF_ASC_NODE": 280.7207, "ARG_OF_PERICENTER": 210.3879, "MEAN_ANOMALY": 149.2482, "EPHEMERIS_TYPE": 0, "CLASSIFICATION_TYPE": "U", "NORAD_CAT_ID": 31878, "ELEMENT_SET_NO": 999, "REV_AT_EPOCH": 98224, "BSTAR": 0.00093453, "MEAN_MOTION_DOT": 8.633e-05, "MEAN_MOTION_DDOT": 0}, "tle": {"line1": "1 31878U 99025CKD 25355.53869293  .00008633  00000+0  93453-3 0  9993", "line2": "2 31878  99.4418 280.7207 0083415 210.3879 149.2482 14.86026303982249"}}, "geometry": {"type": "Point", "coordinates": [-66.29367050716759, -37.465853480777575]}}, {"type": "Feature", "properties": {"norad_id": 31879, "name": "FENGYUN 1C DEB", "group": "fengyun-1c-debris", "lat": 12.54256827932368, "lon": 62.84592745515934, "alt_km": 896.7476551182071, "timestamp": "2025-12-26T07:29:18.740069+00:00", "meta": {"OBJECT_NAME": "FENGYUN 1C DEB", "OBJECT_ID": "1999-025CKE", "EPOCH": "2025-12-24T14:46:40.909728", "MEAN_MOTION": 14.42938197, "ECCENTRICITY": 0.0209506, "INCLINATION": 99.7071, "RA_OF_ASC_NODE": 238.7324, "ARG_OF_PERICENTER": 2.4022, "MEAN_ANOMALY": 357.8121, "EPHEMERIS_TYPE": 0, "CLASSIFICATION_TYPE": "U", "NORAD_CAT_ID": 31879, "ELEMENT_SET_NO": 999, "REV_AT_EPOCH": 63381, "BSTAR": 0.00035999426, "MEAN_MOTION_DOT": 1.502e-05, "MEAN_MOTION_DDOT": 0}, "tle": {"line1": "1 31879U 99025CKE 25358.61575127  .00001502  00000+0  35999-3 0  9995", "line2": "2 31879  99.7071 238.7324 0209506   2.4022 357.8121 14.42938197633810"}}, "geometry": {"type": "Point", "coordinates": [62.84592745515934, 12.54256827932368]}}]}